{
  "type": "FeatureCollection",
  "features": [
    {
      "type": "Feature",
      "properties": {
        "norad_id": 66940,
        "name": "STARLINK-36121",
        "group": "last-30-days",
        "lat": 53.13422951706093,
        "lon": 78.73820325467777,
        "alt_km": 371.9743092064982,
        "timestamp": "2025-12-24T20:42:19.747543+00:00",
        "meta_object_name": "STARLINK-36121",
        "meta_object_id": "2025-286R",
        "meta_epoch": "2025-12-24T06:00:02.000160",
        "meta_mean_motion": 15.65328715,
        "meta_eccentricity": 0.00013277,
        "meta_inclination": 53.1595,
        "meta_ra_of_asc_node": 352.8677,
        "meta_arg_of_pericenter": 90.0157,
        "meta_mean_anomaly": 147.63,
        "meta_ephemeris_type": 0,
        "meta_classification_type": "U",
        "meta_norad_cat_id": 66940,
        "meta_element_set_no": 999,
        "meta_rev_at_epoch": 384,
        "meta_bstar": -0.022869342,
        "meta_mean_motion_dot": -0.02035337,
        "meta_mean_motion_ddot": 0,
        "tle_line1": "1 66940U 25286R   25358.25002315 -.02035337  00000+0 -22869-1 0  9991",
        "tle_line2": "2 66940  53.1595 352.8677 0001327  90.0157 147.6300 15.65328715  3847"
      },
      "geometry": {
        "type": "Point",
        "coordinates": [
          78.73820325467777,
          53.13422951706093
        ]
      }
    },
    {
      "type": "Feature",
      "properties": {
        "norad_id": 66941,
        "name": "STARLINK-36088",
        "group": "last-30-days",
        "lat": 51.76628275557495,
        "lon": 97.74787059708663,
        "alt_km": 366.8532001321646,
        "timestamp": "2025-12-24T20:42:19.747555+00:00",
        "meta_object_name": "STARLINK-36088",
        "meta_object_id": "2025-286S",
        "meta_epoch": "2025-12-24T06:00:02.000160",
        "meta_mean_motion": 15.67081022,
        "meta_eccentricity": 0.00013637,
        "meta_inclination": 53.1595,
        "meta_ra_of_asc_node": 352.852,
        "meta_arg_of_pericenter": 90.8406,
        "meta_mean_anomaly": 154.4582,
        "meta_ephemeris_type": 0,
        "meta_classification_type": "U",
        "meta_norad_cat_id": 66941,
        "meta_element_set_no": 999,
        "meta_rev_at_epoch": 384,
        "meta_bstar": -0.020595124,
        "meta_mean_motion_dot": -0.01976467,
        "meta_mean_motion_ddot": 0,
        "tle_line1": "1 66941U 25286S   25358.25002315 -.01976467  00000+0 -20595-1 0  9993",
        "tle_line2": "2 66941  53.1595 352.8520 0001363  90.8406 154.4582 15.67081022  3847"
      },
      "geometry": {
        "type": "Point",
        "coordinates": [
          97.74787059708663,
          51.76628275557495
        ]
      }
    },
    {
      "type": "Feature",
      "properties": {
        "norad_id": 66942,
        "name": "STARLINK-36100",
        "group": "last-30-days",
        "lat": 53.12152396191044,
        "lon": 81.93479614904096,
        "alt_km": 372.0100080036427,
        "timestamp": "2025-12-24T20:42:19.747565+00:00",
        "meta_object_name": "STARLINK-36100",
        "meta_object_id": "2025-286T",
        "meta_epoch": "2025-12-24T06:00:02.000160",
        "meta_mean_motion": 15.65330662,
        "meta_eccentricity": 0.00012867,
        "meta_inclination": 53.1593,
        "meta_ra_of_asc_node": 352.8635,
        "meta_arg_of_pericenter": 95.5042,
        "meta_mean_anomaly": 144.0573,
        "meta_ephemeris_type": 0,
        "meta_classification_type": "U",
        "meta_norad_cat_id": 66942,
        "meta_element_set_no": 999,
        "meta_rev_at_epoch": 377,
        "meta_bstar": -0.022885309,
        "meta_mean_motion_dot": -0.02036689,
        "meta_mean_motion_ddot": 0,
        "tle_line1": "1 66942U 25286T   25358.25002315 -.02036689  00000+0 -22885-1 0  9992",
        "tle_line2": "2 66942  53.1593 352.8635 0001286  95.5042 144.0573 15.65330662  3777"
      },
      "geometry": {
        "type": "Point",
        "coordinates": [
          81.93479614904096,
          53.12152396191044
        ]
      }
    },
    {
      "type": "Feature",
      "properties": {
        "norad_id": 66943,
        "name": "STARLINK-36109",
        "group": "last-30-days",
        "lat": 53.02341099623053,
        "lon": 85.12381790706348,
        "alt_km": 372.022262458956,
        "timestamp": "2025-12-24T20:42:19.747577+00:00",
        "meta_object_name": "STARLINK-36109",
        "meta_object_id": "2025-286U",
        "meta_epoch": "2025-12-24T06:00:02.000160",
        "meta_mean_motion": 15.65326305,
        "meta_eccentricity": 0.00012812,
        "meta_inclination": 53.1594,
        "meta_ra_of_asc_node": 352.8593,
        "meta_arg_of_pericenter": 97.5108,
        "meta_mean_anomaly": 143.9709,
        "meta_ephemeris_type": 0,
        "meta_classification_type": "U",
        "meta_norad_cat_id": 66943,
        "meta_element_set_no": 999,
        "meta_rev_at_epoch": 377,
        "meta_bstar": -0.022833787,
        "meta_mean_motion_dot": -0.02032355,
        "meta_mean_motion_ddot": 0,
        "tle_line1": "1 66943U 25286U   25358.25002315 -.02032355  00000+0 -22834-1 0  9993",
        "tle_line2": "2 66943  53.1594 352.8593 0001281  97.5108 143.9709 15.65326305  3770"
      },
      "geometry": {
        "type": "Point",
        "coordinates": [
          85.12381790706348,
          53.02341099623053
        ]
      }
    },
    {
      "type": "Feature",
      "properties": {
        "norad_id": 66944,
        "name": "STARLINK-36112",
        "group": "last-30-days",
        "lat": 52.83969752637084,
        "lon": 88.29755460602327,
        "alt_km": 371.87622437264963,
        "timestamp": "2025-12-24T20:42:19.747587+00:00",
        "meta_object_name": "STARLINK-36112",
        "meta_object_id": "2025-286V",
        "meta_epoch": "2025-12-24T06:00:02.000160",
        "meta_mean_motion": 15.65326182,
        "meta_eccentricity": 0.00014804,
        "meta_inclination": 53.1593,
        "meta_ra_of_asc_node": 352.8553,
        "meta_arg_of_pericenter": 93.1508,
        "meta_mean_anomaly": 150.2405,
        "meta_ephemeris_type": 0,
        "meta_classification_type": "U",
        "meta_norad_cat_id": 66944,
        "meta_element_set_no": 999,
        "meta_rev_at_epoch": 384,
        "meta_bstar": -0.022754234,
        "meta_mean_motion_dot": -0.02026299,
        "meta_mean_motion_ddot": 0,
        "tle_line1": "1 66944U 25286V   25358.25002315 -.02026299  00000+0 -22754-1 0  9995",
        "tle_line2": "2 66944  53.1593 352.8553 0001480  93.1508 150.2405 15.65326182  3848"
      },
      "geometry": {
        "type": "Point",
        "coordinates": [
          88.29755460602327,
          52.83969752637084
        ]
      }
    },
    {
      "type": "Feature",
      "properties": {
        "norad_id": 66945,
        "name": "STARLINK-36110",
        "group": "last-30-days",
        "lat": 52.57312471692671,
        "lon": 91.4286282402162,
        "alt_km": 371.9848335912766,
        "timestamp": "2025-12-24T20:42:19.747597+00:00",
        "meta_object_name": "STARLINK-36110",
        "meta_object_id": "2025-286W",
        "meta_epoch": "2025-12-24T06:00:02.000160",
        "meta_mean_motion": 15.65328536,
        "meta_eccentricity": 0.00014153,
        "meta_inclination": 53.1594,
        "meta_ra_of_asc_node": 352.8512,
        "meta_arg_of_pericenter": 91.2968,
        "meta_mean_anomaly": 154.0152,
        "meta_ephemeris_type": 0,
        "meta_classification_type": "U",
        "meta_norad_cat_id": 66945,
        "meta_element_set_no": 999,
        "meta_rev_at_epoch": 384,
        "meta_bstar": -0.022845601,
        "meta_mean_motion_dot": -0.02033543,
        "meta_mean_motion_ddot": 0,
        "tle_line1": "1 66945U 25286W   25358.25002315 -.02033543  00000+0 -22846-1 0  9998",
        "tle_line2": "2 66945  53.1594 352.8512 0001415  91.2968 154.0152 15.65328536  3848"
      },
      "geometry": {
        "type": "Point",
        "coordinates": [
          91.4286282402162,
          52.57312471692671
        ]
      }
    },
    {
      "type": "Feature",
      "properties": {
        "norad_id": 66946,
        "name": "STARLINK-36115",
        "group": "last-30-days",
        "lat": 52.223227175043014,
        "lon": 94.52744460843893,
        "alt_km": 372.01220465213555,
        "timestamp": "2025-12-24T20:42:19.747607+00:00",
        "meta_object_name": "STARLINK-36115",
        "meta_object_id": "2025-286X",
        "meta_epoch": "2025-12-24T06:00:02.000160",
        "meta_mean_motion": 15.6532218,
        "meta_eccentricity": 0.00014109,
        "meta_inclination": 53.1593,
        "meta_ra_of_asc_node": 352.8473,
        "meta_arg_of_pericenter": 89.507,
        "meta_mean_anomaly": 157.7209,
        "meta_ephemeris_type": 0,
        "meta_classification_type": "U",
        "meta_norad_cat_id": 66946,
        "meta_element_set_no": 999,
        "meta_rev_at_epoch": 384,
        "meta_bstar": -0.022701545,
        "meta_mean_motion_dot": -0.02021843,
        "meta_mean_motion_ddot": 0,
        "tle_line1": "1 66946U 25286X   25358.25002315 -.02021843  00000+0 -22702-1 0  9990",
        "tle_line2": "2 66946  53.1593 352.8473 0001410  89.5070 157.7209 15.65322180  3845"
      },
      "geometry": {
        "type": "Point",
        "coordinates": [
          94.52744460843893,
          52.223227175043014
        ]
      }
    }
  ]
}